{
  "type": "FeatureCollection",
  "features": [
    {
      "type": "Feature",
      "properties": {
        "norad_id": 30921,
        "name": "FENGYUN 1C DEB",
        "group": "fengyun-1c-debris",
        "lat": 21.362716275578624,
        "lon": -111.04421926661395,
        "alt_km": 783.6411138371923,
        "timestamp": "2025-12-04T03:47:54.822716+00:00",
        "meta_object_name": "FENGYUN 1C DEB",
        "meta_object_id": "1999-025AZK",
        "meta_epoch": "2025-12-03T05:33:38.007360",
        "meta_mean_motion": 14.3258506,
        "meta_eccentricity": 0.0017512,
        "meta_inclination": 98.8441,
        "meta_ra_of_asc_node": 64.5193,
        "meta_arg_of_pericenter": 67.2924,
        "meta_mean_anomaly": 354.7868,
        "meta_ephemeris_type": 0,
        "meta_classification_type": "U",
        "meta_norad_cat_id": 30921,
        "meta_element_set_no": 999,
        "meta_rev_at_epoch": 96688,
        "meta_bstar": 0.0024419,
        "meta_mean_motion_dot": 6.599e-05,
        "meta_mean_motion_ddot": 0,
        "tle_line1": "1 30921U 99025AZK 25337.23168990  .00006599  00000+0  24419-2 0  9998",
        "tle_line2": "2 30921  98.8441  64.5193 0017512  67.2924 354.7868 14.32585060966887"
      },
      "geometry": {
        "type": "Point",
        "coordinates": [
          -111.04421926661395,
          21.362716275578624
        ]
      }
    },
    {
      "type": "Feature",
      "properties": {
        "norad_id": 30922,
        "name": "FENGYUN 1C DEB",
        "group": "fengyun-1c-debris",
        "lat": -33.40966170758923,
        "lon": 168.48496834219014,
        "alt_km": 848.0109515195036,
        "timestamp": "2025-12-04T03:47:54.822726+00:00",
        "meta_object_name": "FENGYUN 1C DEB",
        "meta_object_id": "1999-025AZL",
        "meta_epoch": "2025-12-02T12:32:56.440608",
        "meta_mean_motion": 14.17417772,
        "meta_eccentricity": 0.00148503,
        "meta_inclination": 98.6411,
        "meta_ra_of_asc_node": 352.6518,
        "meta_arg_of_pericenter": 81.4914,
        "meta_mean_anomaly": 71.8675,
        "meta_ephemeris_type": 0,
        "meta_classification_type": "U",
        "meta_norad_cat_id": 30922,
        "meta_element_set_no": 999,
        "meta_rev_at_epoch": 96419,
        "meta_bstar": 0.00079779732,
        "meta_mean_motion_dot": 1.575e-05,
        "meta_mean_motion_ddot": 0,
        "tle_line1": "1 30922U 99025AZL 25336.52287547  .00001575  00000+0  79780-3 0  9991",
        "tle_line2": "2 30922  98.6411 352.6518 0014850  81.4914  71.8675 14.17417772964196"
      },
      "geometry": {
        "type": "Point",
        "coordinates": [
          168.48496834219014,
          -33.40966170758923
        ]
      }
    },
    {
      "type": "Feature",
      "properties": {
        "norad_id": 30925,
        "name": "FENGYUN 1C DEB",
        "group": "fengyun-1c-debris",
        "lat": -81.0843328456879,
        "lon": -164.97498300486018,
        "alt_km": 733.2952658726581,
        "timestamp": "2025-12-04T03:47:54.822736+00:00",
        "meta_object_name": "FENGYUN 1C DEB",
        "meta_object_id": "1999-025AZP",
        "meta_epoch": "2025-12-02T07:33:36.546048",
        "meta_mean_motion": 14.42841359,
        "meta_eccentricity": 0.0032682,
        "meta_inclination": 98.8823,
        "meta_ra_of_asc_node": 107.6578,
        "meta_arg_of_pericenter": 267.6181,
        "meta_mean_anomaly": 154.0428,
        "meta_ephemeris_type": 0,
        "meta_classification_type": "U",
        "meta_norad_cat_id": 30925,
        "meta_element_set_no": 999,
        "meta_rev_at_epoch": 96922,
        "meta_bstar": 0.0029562,
        "meta_mean_motion_dot": 9.896e-05,
        "meta_mean_motion_ddot": 0,
        "tle_line1": "1 30925U 99025AZP 25336.31500632  .00009896  00000+0  29562-2 0  9990",
        "tle_line2": "2 30925  98.8823 107.6578 0032682 267.6181 154.0428 14.42841359969228"
      },
      "geometry": {
        "type": "Point",
        "coordinates": [
          -164.97498300486018,
          -81.0843328456879
        ]
      }
    },
    {
      "type": "Feature",
      "properties": {
        "norad_id": 30926,
        "name": "FENGYUN 1C DEB",
        "group": "fengyun-1c-debris",
        "lat": 70.53043100271708,
        "lon": -108.0550931681982,
        "alt_km": 486.54495152092386,
        "timestamp": "2025-12-04T03:47:54.822746+00:00",
        "meta_object_name": "FENGYUN 1C DEB",
        "meta_object_id": "1999-025AZQ",
        "meta_epoch": "2025-12-03T06:31:11.785152",
        "meta_mean_motion": 14.8914935,
        "meta_eccentricity": 0.0166855,
        "meta_inclination": 98.8012,
        "meta_ra_of_asc_node": 276.9525,
        "meta_arg_of_pericenter": 52.0179,
        "meta_mean_anomaly": 309.5973,
        "meta_ephemeris_type": 0,
        "meta_classification_type": "U",
        "meta_norad_cat_id": 30926,
        "meta_element_set_no": 999,
        "meta_rev_at_epoch": 626,
        "meta_bstar": 0.00068893,
        "meta_mean_motion_dot": 8.38e-05,
        "meta_mean_motion_ddot": 0,
        "tle_line1": "1 30926U 99025AZQ 25337.27166418  .00008380  00000+0  68893-3 0  9995",
        "tle_line2": "2 30926  98.8012 276.9525 0166855  52.0179 309.5973 14.89149350  6265"
      },
      "geometry": {
        "type": "Point",
        "coordinates": [
          -108.0550931681982,
          70.53043100271708
        ]
      }
    },
    {
      "type": "Feature",
      "properties": {
        "norad_id": 30927,
        "name": "FENGYUN 1C DEB",
        "group": "fengyun-1c-debris",
        "lat": -45.79897042017253,
        "lon": -151.10654996249622,
        "alt_km": 938.5027997412262,
        "timestamp": "2025-12-04T03:47:54.822756+00:00",
        "meta_object_name": "FENGYUN 1C DEB",
        "meta_object_id": "1999-025AZR",
        "meta_epoch": "2025-12-02T23:27:28.547136",
        "meta_mean_motion": 14.08892452,
        "meta_eccentricity": 0.00987852,
        "meta_inclination": 99.1836,
        "meta_ra_of_asc_node": 37.2663,
        "meta_arg_of_pericenter": 33.6709,
        "meta_mean_anomaly": 327.0684,
        "meta_ephemeris_type": 0,
        "meta_classification_type": "U",
        "meta_norad_cat_id": 30927,
        "meta_element_set_no": 999,
        "meta_rev_at_epoch": 95546,
        "meta_bstar": 0.0020438482,
        "meta_mean_motion_dot": 3.651e-05,
        "meta_mean_motion_ddot": 0,
        "tle_line1": "1 30927U 99025AZR 25336.97741374  .00003651  00000+0  20438-2 0  9990",
        "tle_line2": "2 30927  99.1836  37.2663 0098785  33.6709 327.0684 14.08892452955463"
      },
      "geometry": {
        "type": "Point",
        "coordinates": [
          -151.10654996249622,
          -45.79897042017253
        ]
      }
    },
    {
      "type": "Feature",
      "properties": {
        "norad_id": 30928,
        "name": "FENGYUN 1C DEB",
        "group": "fengyun-1c-debris",
        "lat": 18.33341985926893,
        "lon": 65.74229301336102,
        "alt_km": 889.806173876771,
        "timestamp": "2025-12-04T03:47:54.822766+00:00",
        "meta_object_name": "FENGYUN 1C DEB",
        "meta_object_id": "1999-025AZS",
        "meta_epoch": "2025-12-02T04:48:04.904928",
        "meta_mean_motion": 13.22221332,
        "meta_eccentricity": 0.045112,
        "meta_inclination": 98.8836,
        "meta_ra_of_asc_node": 67.0421,
        "meta_arg_of_pericenter": 57.6478,
        "meta_mean_anomaly": 7.5056,
        "meta_ephemeris_type": 0,
        "meta_classification_type": "U",
        "meta_norad_cat_id": 30928,
        "meta_element_set_no": 999,
        "meta_rev_at_epoch": 90209,
        "meta_bstar": 0.00088279603,
        "meta_mean_motion_dot": 5.96e-06,
        "meta_mean_motion_ddot": 0,
        "tle_line1": "1 30928U 99025AZS 25336.20005677  .00000596  00000+0  88280-3 0  9991",
        "tle_line2": "2 30928  98.8836  67.0421 0451120  57.6478   7.5056 13.22221332902090"
      },
      "geometry": {
        "type": "Point",
        "coordinates": [
          65.74229301336102,
          18.33341985926893
        ]
      }
    },
    {
      "type": "Feature",
      "properties": {
        "norad_id": 30930,
        "name": "FENGYUN 1C DEB",
        "group": "fengyun-1c-debris",
        "lat": -31.101435943240443,
        "lon": -178.16744500234367,
        "alt_km": 758.1674686996275,
        "timestamp": "2025-12-04T03:47:54.822776+00:00",
        "meta_object_name": "FENGYUN 1C DEB",
        "meta_object_id": "1999-025AZU",
        "meta_epoch": "2025-12-02T07:40:45.179040",
        "meta_mean_motion": 14.37352769,
        "meta_eccentricity": 0.0109503,
        "meta_inclination": 98.2165,
        "meta_ra_of_asc_node": 5.0765,
        "meta_arg_of_pericenter": 137.3637,
        "meta_mean_anomaly": 286.006,
        "meta_ephemeris_type": 0,
        "meta_classification_type": "U",
        "meta_norad_cat_id": 30930,
        "meta_element_set_no": 999,
        "meta_rev_at_epoch": 98182,
        "meta_bstar": 0.00047615,
        "meta_mean_motion_dot": 1.481e-05,
        "meta_mean_motion_ddot": 0,
        "tle_line1": "1 30930U 99025AZU 25336.31996735  .00001481  00000+0  47615-3 0  9991",
        "tle_line2": "2 30930  98.2165   5.0765 0109503 137.3637 286.0060 14.37352769981826"
      },
      "geometry": {
        "type": "Point",
        "coordinates": [
          -178.16744500234367,
          -31.101435943240443
        ]
      }
    }
  ]
}